[{"OBJECT_NAME":"THORAD AGENA D DEB","OBJECT_ID":"1970-025CJ","EPOCH":"2026-03-05T05:59:56.525856","MEAN_MOTION":16.05906055,"ECCENTRICITY":0.0011376,"INCLINATION":99.5846,"RA_OF_ASC_NODE":76.8615,"ARG_OF_PERICENTER":181.1558,"MEAN_ANOMALY":178.9691,"EPHEMERIS_TYPE":0,"CLASSIFICATION_TYPE":"U","NORAD_CAT_ID":4735,"ELEMENT_SET_NO":999,"REV_AT_EPOCH":88062,"BSTAR":0.014291,"MEAN_MOTION_DOT":0.06791631,"MEAN_MOTION_DDOT":0.13744},{"OBJECT_NAME":"COSMOS 886 DEB","OBJECT_ID":"1976-126BN","EPOCH":"2026-03-05T10:21:52.276320","MEAN_MOTION":16.19434659,"ECCENTRICITY":0.0017078,"INCLINATION":65.5928,"RA_OF_ASC_NODE":307.6976,"ARG_OF_PERICENTER":206.5599,"MEAN_ANOMALY":153.4711,"EPHEMERIS_TYPE":0,"CLASSIFICATION_TYPE":"U","NORAD_CAT_ID":14501,"ELEMENT_SET_NO":999,"REV_AT_EPOCH":14999,"BSTAR":0.0047049,"MEAN_MOTION_DOT":0.08967905,"MEAN_MOTION_DDOT":6.7923e-6},{"OBJECT_NAME":"COSMOS 1812","OBJECT_ID":"1987-003A","EPOCH":"2026-03-06T03:08:00.778848","MEAN_MOTION":16.49575463,"ECCENTRICITY":0.0011771,"INCLINATION":82.4628,"RA_OF_ASC_NODE":199.5909,"ARG_OF_PERICENTER":272.0058,"MEAN_ANOMALY":87.9898,"EPHEMERIS_TYPE":0,"CLASSIFICATION_TYPE":"U","NORAD_CAT_ID":17295,"ELEMENT_SET_NO":999,"REV_AT_EPOCH":14391,"BSTAR":0.00014058925,"MEAN_MOTION_DOT":0.12040831,"MEAN_MOTION_DDOT":-1.282894e-6},{"OBJECT_NAME":"CZ-4 DEB","OBJECT_ID":"1990-081BJ","EPOCH":"2026-03-06T05:29:49.983072","MEAN_MOTION":16.06837422,"ECCENTRICITY":0.0014195,"INCLINATION":98.0769,"RA_OF_ASC_NODE":155.011,"ARG_OF_PERICENTER":294.1129,"MEAN_ANOMALY":65.8666,"EPHEMERIS_TYPE":0,"CLASSIFICATION_TYPE":"U","NORAD_CAT_ID":20898,"ELEMENT_SET_NO":999,"REV_AT_EPOCH":86760,"BSTAR":0.0090039532,"MEAN_MOTION_DOT":0.04898925,"MEAN_MOTION_DDOT":0.058860912},{"OBJECT_NAME":"IRIDIUM 51","OBJECT_ID":"1998-018A","EPOCH":"2026-03-06T04:35:58.712064","MEAN_MOTION":16.03128413,"ECCENTRICITY":0.00167423,"INCLINATION":86.35,"RA_OF_ASC_NODE":282.4191,"ARG_OF_PERICENTER":294.9621,"MEAN_ANOMALY":64.9927,"EPHEMERIS_TYPE":0,"CLASSIFICATION_TYPE":"U","NORAD_CAT_ID":25262,"ELEMENT_SET_NO":999,"REV_AT_EPOCH":48779,"BSTAR":0.0012354538,"MEAN_MOTION_DOT":0.00758788,"MEAN_MOTION_DDOT":0.00027807216},{"OBJECT_NAME":"FENGYUN 1C DEB","OBJECT_ID":"1999-025AHC","EPOCH":"2026-03-06T01:52:18.553728","MEAN_MOTION":15.98614735,"ECCENTRICITY":0.00223201,"INCLINATION":98.326,"RA_OF_ASC_NODE":214.1666,"ARG_OF_PERICENTER":276.5224,"MEAN_ANOMALY":83.3509,"EPHEMERIS_TYPE":0,"CLASSIFICATION_TYPE":"U","NORAD_CAT_ID":30490,"ELEMENT_SET_NO":999,"REV_AT_EPOCH":775,"BSTAR":0.0071770465,"MEAN_MOTION_DOT":0.03007822,"MEAN_MOTION_DDOT":0.0099151134},{"OBJECT_NAME":"CZ-2D DEB","OBJECT_ID":"2005-024J","EPOCH":"2026-03-01T21:43:49.210752","MEAN_MOTION":15.92111318,"ECCENTRICITY":0.0004089,"INCLINATION":97.1482,"RA_OF_ASC_NODE":103.0739,"ARG_OF_PERICENTER":145.2826,"MEAN_ANOMALY":214.8716,"EPHEMERIS_TYPE":0,"CLASSIFICATION_TYPE":"U","NORAD_CAT_ID":31409,"ELEMENT_SET_NO":999,"REV_AT_EPOCH":11718,"BSTAR":0.00072484,"MEAN_MOTION_DOT":0.0023946,"MEAN_MOTION_DDOT":2.3346e-5},{"OBJECT_NAME":"ZIYUAN 3-01 (ZY 3-01)","OBJECT_ID":"2012-001A","EPOCH":"2026-03-06T06:01:09.018048","MEAN_MOTION":15.99895344,"ECCENTRICITY":0.00026535,"INCLINATION":97.1563,"RA_OF_ASC_NODE":139.9661,"ARG_OF_PERICENTER":245.1958,"MEAN_ANOMALY":114.9045,"EPHEMERIS_TYPE":0,"CLASSIFICATION_TYPE":"U","NORAD_CAT_ID":38046,"ELEMENT_SET_NO":999,"REV_AT_EPOCH":78815,"BSTAR":0.00086656985,"MEAN_MOTION_DOT":0.0043564,"MEAN_MOTION_DDOT":8.3199867e-5},{"OBJECT_NAME":"HUMSAT-D","OBJECT_ID":"2013-066T","EPOCH":"2026-03-05T23:59:07.252800","MEAN_MOTION":16.06030255,"ECCENTRICITY":0.00068255,"INCLINATION":97.4822,"RA_OF_ASC_NODE":77.8484,"ARG_OF_PERICENTER":168.1976,"MEAN_ANOMALY":191.9466,"EPHEMERIS_TYPE":0,"CLASSIFICATION_TYPE":"U","NORAD_CAT_ID":39433,"ELEMENT_SET_NO":999,"REV_AT_EPOCH":67087,"BSTAR":0.0019681531,"MEAN_MOTION_DOT":0.01398378,"MEAN_MOTION_DDOT":0.0012193314},{"OBJECT_NAME":"H-2A DEB","OBJECT_ID":"2018-084E","EPOCH":"2026-03-06T04:10:51.065760","MEAN_MOTION":16.07655861,"ECCENTRICITY":0.00035934,"INCLINATION":98.001,"RA_OF_ASC_NODE":281.5298,"ARG_OF_PERICENTER":293.1596,"MEAN_ANOMALY":66.9305,"EPHEMERIS_TYPE":0,"CLASSIFICATION_TYPE":"U","NORAD_CAT_ID":43675,"ELEMENT_SET_NO":999,"REV_AT_EPOCH":40256,"BSTAR":0.0026350532,"MEAN_MOTION_DOT":0.01997289,"MEAN_MOTION_DDOT":0.0032848862},{"OBJECT_NAME":"SPACEBEE-7","OBJECT_ID":"2018-099BL","EPOCH":"2026-03-06T04:15:24.204672","MEAN_MOTION":16.1560645,"ECCENTRICITY":0.00091165,"INCLINATION":97.433,"RA_OF_ASC_NODE":151.9415,"ARG_OF_PERICENTER":277.1241,"MEAN_ANOMALY":82.9009,"EPHEMERIS_TYPE":0,"CLASSIFICATION_TYPE":"U","NORAD_CAT_ID":43816,"ELEMENT_SET_NO":999,"REV_AT_EPOCH":39865,"BSTAR":0.0018998397,"MEAN_MOTION_DOT":0.02286287,"MEAN_MOTION_DDOT":0.0069988525},{"OBJECT_NAME":"STARLINK-1112","OBJECT_ID":"2020-001M","EPOCH":"2026-03-06T04:31:01.725888","MEAN_MOTION":16.09795765,"ECCENTRICITY":0.00056446,"INCLINATION":53.0295,"RA_OF_ASC_NODE":259.1446,"ARG_OF_PERICENTER":280.0507,"MEAN_ANOMALY":79.9889,"EPHEMERIS_TYPE":0,"CLASSIFICATION_TYPE":"U","NORAD_CAT_ID":44925,"ELEMENT_SET_NO":999,"REV_AT_EPOCH":34076,"BSTAR":0.00085161934,"MEAN_MOTION_DOT":0.00810319,"MEAN_MOTION_DDOT":0.00037247313},{"OBJECT_NAME":"STARLINK-1298","OBJECT_ID":"2020-019BF","EPOCH":"2026-03-06T08:00:01.000224","MEAN_MOTION":15.94239388,"ECCENTRICITY":0.00070539,"INCLINATION":53.0349,"RA_OF_ASC_NODE":71.1021,"ARG_OF_PERICENTER":7.5954,"MEAN_ANOMALY":229.2099,"EPHEMERIS_TYPE":0,"CLASSIFICATION_TYPE":"U","NORAD_CAT_ID":45413,"ELEMENT_SET_NO":999,"REV_AT_EPOCH":600,"BSTAR":0.00064507581,"MEAN_MOTION_DOT":0.00243948,"MEAN_MOTION_DDOT":3.4073057e-5},{"OBJECT_NAME":"STARLINK-1398","OBJECT_ID":"2020-035AU","EPOCH":"2026-03-06T08:00:01.000224","MEAN_MOTION":15.92962586,"ECCENTRICITY":0.00038075,"INCLINATION":53.036,"RA_OF_ASC_NODE":316.3968,"ARG_OF_PERICENTER":161.4039,"MEAN_ANOMALY":279.5447,"EPHEMERIS_TYPE":0,"CLASSIFICATION_TYPE":"U","NORAD_CAT_ID":45699,"ELEMENT_SET_NO":999,"REV_AT_EPOCH":600,"BSTAR":0.00072489285,"MEAN_MOTION_DOT":0.00255916,"MEAN_MOTION_DDOT":3.5972923e-5},{"OBJECT_NAME":"STARLINK-1484","OBJECT_ID":"2020-038AC","EPOCH":"2026-03-06T08:00:01.000224","MEAN_MOTION":15.9994592,"ECCENTRICITY":0.00067525,"INCLINATION":52.998,"RA_OF_ASC_NODE":73.9658,"ARG_OF_PERICENTER":50.7289,"MEAN_ANOMALY":281.9971,"EPHEMERIS_TYPE":0,"CLASSIFICATION_TYPE":"U","NORAD_CAT_ID":45756,"ELEMENT_SET_NO":999,"REV_AT_EPOCH":601,"BSTAR":0.00086104126,"MEAN_MOTION_DOT":0.00448902,"MEAN_MOTION_DDOT":9.7729106e-5},{"OBJECT_NAME":"STARLINK-1587","OBJECT_ID":"2020-057AS","EPOCH":"2026-03-06T08:00:01.000224","MEAN_MOTION":15.93269739,"ECCENTRICITY":0.00040557,"INCLINATION":53.0313,"RA_OF_ASC_NODE":233.521,"ARG_OF_PERICENTER":275.8132,"MEAN_ANOMALY":275.3307,"EPHEMERIS_TYPE":0,"CLASSIFICATION_TYPE":"U","NORAD_CAT_ID":46157,"ELEMENT_SET_NO":999,"REV_AT_EPOCH":593,"BSTAR":0.0013030664,"MEAN_MOTION_DOT":0.00470072,"MEAN_MOTION_DDOT":9.8030246e-5}]
