THORAD AGENA D DEB      
1 04735U 70025CJ  26064.24995979  .06791631  13744+0  14291-1 0  9994
2 04735  99.5846  76.8615 0011376 181.1558 178.9691 16.05906055880624
COSMOS 886 DEB          
1 14501U 76126BN  26064.43185505  .08967905  67923-5  47049-2 0  9994
2 14501  65.5928 307.6976 0017078 206.5599 153.4711 16.19434659149997
COSMOS 1812             
1 17295U 87003A   26065.13056457  .12040831 -12829-5  14059-3 0  9991
2 17295  82.4628 199.5909 0011771 272.0058  87.9898 16.49575463143916
CZ-4 DEB                
1 20898U 90081BJ  26065.22905073  .04898925  58861-1  90040-2 0  9991
2 20898  98.0769 155.0110 0014195 294.1129  65.8666 16.06837422867602
IRIDIUM 51              
1 25262U 98018A   26065.19165176  .00758788  27807-3  12355-2 0  9996
2 25262  86.3500 282.4191 0016742 294.9621  64.9927 16.03128413487792
FENGYUN 1C DEB          
1 30490U 99025AHC 26065.07799252  .03007822  99151-2  71770-2 0  9994
2 30490  98.3260 214.1666 0022320 276.5224  83.3509 15.98614735  7755
CZ-2D DEB               
1 31409U 05024J   26060.90543068  .00239460  23346-4  72484-3 0  9991
2 31409  97.1482 103.0739 0004089 145.2826 214.8716 15.92111318117181
ZIYUAN 3-01 (ZY 3-01)   
1 38046U 12001A   26065.25079882  .00435640  83200-4  86657-3 0  9999
2 38046  97.1563 139.9661 0002653 245.1958 114.9045 15.99895344788159
HUMSAT-D                
1 39433U 13066T   26064.99938950  .01398378  12193-2  19682-2 0  9993
2 39433  97.4822  77.8484 0006825 168.1976 191.9466 16.06030255670875
H-2A DEB                
1 43675U 18084E   26065.17420215  .01997289  32849-2  26351-2 0  9999
2 43675  98.0010 281.5298 0003593 293.1596  66.9305 16.07655861402566
SPACEBEE-7              
1 43816U 18099BL  26065.17736348  .02286287  69989-2  18998-2 0  9992
2 43816  97.4330 151.9415 0009116 277.1241  82.9009 16.15606450398650
STARLINK-1112           
1 44925U 20001M   26065.18821442  .00810319  37247-3  85162-3 0  9999
2 44925  53.0295 259.1446 0005644 280.0507  79.9889 16.09795765340767
STARLINK-1298           
1 45413U 20019BF  26065.33334491  .00243948  34073-4  64508-3 0  9995
2 45413  53.0349  71.1021 0007053   7.5954 229.2099 15.94239388  6001
STARLINK-1398           
1 45699U 20035AU  26065.33334491  .00255916  35973-4  72489-3 0  9994
2 45699  53.0360 316.3968 0003807 161.4039 279.5447 15.92962586  6007
STARLINK-1484           
1 45756U 20038AC  26065.33334491  .00448902  97729-4  86104-3 0  9996
2 45756  52.9980  73.9658 0006752  50.7289 281.9971 15.99945920  6018
STARLINK-1587           
1 46157U 20057AS  26065.33334491  .00470072  98030-4  13031-2 0  9990
2 46157  53.0313 233.5210 0004055 275.8132 275.3307 15.93269739  5936
